{"city": "Antioch", "state": "CA", "zip_code": 945097911}
{"city": "Woodland", "state": "CA", "zip_code": 957765409}
{"city": "San Jose", "state": "CA", "zip_code": 951311866}
{"city": "Victorville", "state": "CA", "zip_code": 923954216}
{"city": "Chico", "state": "CA", "zip_code": 959284422}
{"city": "San Dimas", "state": "CA", "zip_code": 917731725}
{"city": "Visalia", "state": "CA", "zip_code": 932779527}
{"city": "Manteca", "state": "CA", "zip_code": 953366745}
{"city": "Redwood City", "state": "CA", "zip_code": 940632854}
{"city": "Lakewood", "state": "CA", "zip_code": 907122409}
{"city": "Hayward", "state": "CA", "zip_code": 945455008}
{"city": "Pacoima", "state": "CA", "zip_code": 913312352}
{"city": "San Marcos", "state": "CA", "zip_code": 92069}
{"city": "Lodi", "state": "CA", "zip_code": 95240}
{"city": "Huntington Beach", "state": "CA", "zip_code": 92647}
{"city": "Westlake Village", "state": "CA", "zip_code": 913624063}
{"city": "San Leandro", "state": "CA", "zip_code": 945771209}
{"city": "Woodland Hills", "state": "CA", "zip_code": 913672227}
{"city": "El Centro", "state": "CA", "zip_code": 922431323}
{"city": "Tustin", "state": "CA", "zip_code": 927828918}
{"city": "Vista", "state": "CA", "zip_code": 920814546}
{"city": "Eureka", "state": "CA", "zip_code": 955012121}
{"city": "Garden Grove", "state": "CA", "zip_code": 928431206}
{"city": "Simi Valley", "state": "CA", "zip_code": 930656207}
{"city": "Santa Clara", "state": "CA", "zip_code": 950503100}
{"city": "Los Angeles", "state": "CA", "zip_code": 900391502}
{"city": "SandCity", "state": "CA", "zip_code": 939553051}
{"city": "Vallejo", "state": "CA", "zip_code": 945913702}
{"city": "Redding", "state": "CA", "zip_code": 960034071}
{"city": "Clovis", "state": "CA", "zip_code": 936125611}
{"city": "Novato", "state": "CA", "zip_code": 949455007}
{"city": "Merced", "state": "CA", "zip_code": 953405850}
{"city": "Mountain View", "state": "CA", "zip_code": 940431716}
{"city": "San Francisco", "state": "CA", "zip_code": 941034304}
{"city": "Livermore", "state": "CA", "zip_code": 945517628}
{"city": "Foster City", "state": "CA", "zip_code": 944042177}
{"city": "San Jose", "state": "CA", "zip_code": 951122627}
{"city": "Santa Cruz", "state": "CA", "zip_code": 950602161}
{"city": "Danville", "state": "CA", "zip_code": 945265553}
{"city": "Santa Maria", "state": "CA", "zip_code": 934548006}
{"city": "Laguna Niguel", "state": "CA", "zip_code": 926771211}
{"city": "Roseville", "state": "CA", "zip_code": 956781907}
{"city": "Fresno", "state": "CA", "zip_code": 937226200}
{"city": "Stockton", "state": "CA", "zip_code": 952104119}
{"city": "San Diego", "state": "CA", "zip_code": 921173650}
{"city": "Santee", "state": "CA", "zip_code": 920715899}
{"city": "Santa Rosa", "state": "CA", "zip_code": 954077636}
{"city": "Norwalk", "state": "CA", "zip_code": 906502266}
{"city": "Fountain Valley", "state": "CA", "zip_code": 927085404}
{"city": "Azusa", "state": "CA", "zip_code": 917022819}
{"city": "Fullerton", "state": "CA", "zip_code": 928323098}
{"city": "Oxnard", "state": "CA", "zip_code": 930361813}
{"city": "South San Francisco", "state": "CA", "zip_code": 940806909}
{"city": "Sunnyvale", "state": "CA", "zip_code": 940865309}
{"city": "Signal Hill", "state": "CA", "zip_code": 907552132}
{"city": "Alhambra", "state": "CA", "zip_code": 918031302}
{"city": "San Juan Capistrano", "state": "CA", "zip_code": 926754836}
{"city": "Corona", "state": "CA", "zip_code": 928791291}
{"city": "Northridge", "state": "CA", "zip_code": 913243519}
{"city": "Rancho Cordova", "state": "CA", "zip_code": 957426571}
{"city": "Palm Desert", "state": "CA", "zip_code": 922110817}
{"city": "Yorba Linda", "state": "CA", "zip_code": 928874664}
{"city": "Santa Clarita", "state": "CA", "zip_code": 913874935}
{"city": "San Diego", "state": "CA", "zip_code": 921284697}
{"city": "Fairfield", "state": "CA", "zip_code": 945341624}
{"city": "Irvine", "state": "CA", "zip_code": 926182408}
{"city": "Moreno Valley", "state": "CA", "zip_code": 925537531}
{"city": "Montebello", "state": "CA", "zip_code": 906402585}
{"city": "Chula Vista", "state": "CA", "zip_code": 919107807}
{"city": "Carlsbad", "state": "CA", "zip_code": 920111110}
{"city": "Sacramento", "state": "CA", "zip_code": 958239606}
{"city": "La Mesa", "state": "CA", "zip_code": 919422934}
{"city": "San Jose", "state": "CA", "zip_code": 951183603}
{"city": "Sacramento", "state": "CA", "zip_code": 958154228}
{"city": "Salinas", "state": "CA", "zip_code": 939071988}
{"city": "Chino Hills", "state": "CA", "zip_code": 917096002}
{"city": "Goleta", "state": "CA", "zip_code": 931175905}
{"city": "South San Francisco", "state": "CA", "zip_code": 940801206}
{"city": "Torrance", "state": "CA", "zip_code": 905055351}
{"city": "San Bernardino", "state": "CA", "zip_code": 924082836}
{"city": "Marina Del Rey", "state": "CA", "zip_code": 902925658}
{"city": "Van Nuys", "state": "CA", "zip_code": 914112503}
{"city": "Richmond", "state": "CA", "zip_code": 948045878}
{"city": "San Diego", "state": "CA", "zip_code": 921024530}
{"city": "San Diego", "state": "CA", "zip_code": 921084743}
{"city": "Temecula", "state": "CA", "zip_code": 925914697}
{"city": "Hawthorne", "state": "CA", "zip_code": 902504638}
{"city": "Commerce", "state": "CA", "zip_code": 900402513}
{"city": "San Diego", "state": "CA", "zip_code": 921113709}
{"city": "Fontana", "state": "CA", "zip_code": 923361256}
{"city": "La Quinta", "state": "CA", "zip_code": 922534756}
{"city": "Bakersfield", "state": "CA", "zip_code": 933133479}
{"city": "Fresno", "state": "CA", "zip_code": 937202920}
{"city": "Tracy", "state": "CA", "zip_code": 95377}
{"city": "Rohnert Park", "state": "CA", "zip_code": 949282076}
{"city": "Modesto", "state": "CA", "zip_code": 953568300}
{"city": "Concord", "state": "CA", "zip_code": 945203105}
{"city": "Hawthorne", "state": "CA", "zip_code": 902506748}
{"city": "Burbank", "state": "CA", "zip_code": 915061421}